space_Veins-1
1 51472U 22010S   22053.00000000  .00000000  00000+0  00000-0 0  9995
2 51472  70.0000 000.0000 0000000  00.0000 000.0000 15.73209361  2401